SL-3 R/B                
1 19046U 88032B   26095.26167697  .00005991  00000+0  27691-3 0  9998
2 19046  97.5226  78.4304 0027111 138.3540 221.9766 15.20224089 56147
SL-16 R/B               
1 19120U 88039B   26095.19237792 -.00000063  00000+0 -70165-5 0  9997
2 19120  71.0174  12.5077 0023872 296.5078  63.3599 14.19620769962148
COSMOS 1953             
1 19210U 88050A   26095.13514953  .00008835  00000+0  31235-3 0  9997
2 19210  82.5055 131.6399 0011822  39.8494 320.3612 15.28962252 41827
SL-8 R/B                
1 19257U 88053B   26095.20499300  .00000296  00000+0  10442-3 0  9997
2 19257  74.0469  63.5859 0021356 239.2662 131.0007 14.38934233980413
COSMOS 1975             
1 19573U 88093A   26095.24272545  .00007963  00000+0  28559-3 0  9992
2 19573  82.5163  91.0152 0013333  80.2064 280.0681 15.28462572 23465
SL-14 R/B               
1 19574U 88093B   26095.21755858  .00000749  00000+0  83379-4 0  9990
2 19574  82.5346  17.1467 0019525 313.5979 208.6179 14.85690225  4954
SL-16 R/B               
1 19650U 88102B   26095.18107272  .00000288  00000+0  16937-3 0  9996
2 19650  70.9972  95.7545 0015426 322.9491  37.0566 14.16155844930648
INTERCOSMOS 24          
1 20261U 89080A   26095.25375713  .00000507  00000+0  14865-3 0  9999
2 20261  82.6016  87.1005 1187022 231.1120 117.8168 12.59591393670145
SL-14 R/B               
1 20262U 89080C   26095.20158606  .00000468  00000+0  13157-3 0  9994
2 20262  82.5945 156.1742 1230917 124.1814 248.2220 12.50519289663464
DELTA 1 R/B             
1 20323U 89089B   26095.10728475  .00000453  00000+0  12042-3 0  9993
2 20323  97.0683 298.3398 0070092  40.0772 320.5567 14.50686434899561
ARIANE 40 R/B           
1 20443U 90005H   26095.15050203  .00000384  00000+0  13567-3 0  9994
2 20443  98.3028 155.0163 0011278 122.4854 237.7426 14.39889347896618
DELTA 2 R/B(1)          
1 20453U 90008B   26095.16439067  .00085921  00000+0  89120-3 0  9996
2 20453  35.6042   0.6456 0076190 148.0524 212.4864 15.59772920930268
