CCSDS_OMM_VERS = 2.0
CREATION_DATE  = 
ORIGINATOR     = 

OBJECT_NAME    = SL-3 R/B
OBJECT_ID      = 1988-032B
CENTER_NAME    = EARTH
REF_FRAME      = TEME
TIME_SYSTEM    = UTC
MEAN_ELEMENT_THEORY = SGP/SGP4

EPOCH          = 2026-04-05T06:16:48.890208
MEAN_MOTION    = 15.20224089
ECCENTRICITY   = .00271117
INCLINATION    = 97.5226
RA_OF_ASC_NODE = 78.4304
ARG_OF_PERICENTER = 138.3540
MEAN_ANOMALY   = 221.9766

EPHEMERIS_TYPE = 0
CLASSIFICATION_TYPE = U
NORAD_CAT_ID   = 19046
ELEMENT_SET_NO = 999
REV_AT_EPOCH   = 5614
BSTAR          = .2769089E-3
MEAN_MOTION_DOT = .5991E-4
MEAN_MOTION_DDOT = 0

CCSDS_OMM_VERS = 2.0
CREATION_DATE  = 
ORIGINATOR     = 

OBJECT_NAME    = SL-16 R/B
OBJECT_ID      = 1988-039B
CENTER_NAME    = EARTH
REF_FRAME      = TEME
TIME_SYSTEM    = UTC
MEAN_ELEMENT_THEORY = SGP/SGP4

EPOCH          = 2026-04-05T04:37:01.452288
MEAN_MOTION    = 14.19620769
ECCENTRICITY   = .0023872
INCLINATION    = 71.0174
RA_OF_ASC_NODE = 12.5077
ARG_OF_PERICENTER = 296.5078
MEAN_ANOMALY   = 63.3599

EPHEMERIS_TYPE = 0
CLASSIFICATION_TYPE = U
NORAD_CAT_ID   = 19120
ELEMENT_SET_NO = 999
REV_AT_EPOCH   = 96214
BSTAR          = -.7016531E-5
MEAN_MOTION_DOT = -.63E-6
MEAN_MOTION_DDOT = 0

CCSDS_OMM_VERS = 2.0
CREATION_DATE  = 
ORIGINATOR     = 

OBJECT_NAME    = COSMOS 1953
OBJECT_ID      = 1988-050A
CENTER_NAME    = EARTH
REF_FRAME      = TEME
TIME_SYSTEM    = UTC
MEAN_ELEMENT_THEORY = SGP/SGP4

EPOCH          = 2026-04-05T03:14:36.919392
MEAN_MOTION    = 15.28962252
ECCENTRICITY   = .00118227
INCLINATION    = 82.5055
RA_OF_ASC_NODE = 131.6399
ARG_OF_PERICENTER = 39.8494
MEAN_ANOMALY   = 320.3612

EPHEMERIS_TYPE = 0
CLASSIFICATION_TYPE = U
NORAD_CAT_ID   = 19210
ELEMENT_SET_NO = 999
REV_AT_EPOCH   = 4182
BSTAR          = .31235361E-3
MEAN_MOTION_DOT = .8835E-4
MEAN_MOTION_DDOT = 0

CCSDS_OMM_VERS = 2.0
CREATION_DATE  = 
ORIGINATOR     = 

OBJECT_NAME    = SL-8 R/B
OBJECT_ID      = 1988-053B
CENTER_NAME    = EARTH
REF_FRAME      = TEME
TIME_SYSTEM    = UTC
MEAN_ELEMENT_THEORY = SGP/SGP4

EPOCH          = 2026-04-05T04:55:11.395200
MEAN_MOTION    = 14.38934233
ECCENTRICITY   = .00213567
INCLINATION    = 74.0469
RA_OF_ASC_NODE = 63.5859
ARG_OF_PERICENTER = 239.2662
MEAN_ANOMALY   = 131.0007

EPHEMERIS_TYPE = 0
CLASSIFICATION_TYPE = U
NORAD_CAT_ID   = 19257
ELEMENT_SET_NO = 999
REV_AT_EPOCH   = 98041
BSTAR          = .10442192E-3
MEAN_MOTION_DOT = .296E-5
MEAN_MOTION_DDOT = 0

CCSDS_OMM_VERS = 2.0
CREATION_DATE  = 
ORIGINATOR     = 

OBJECT_NAME    = COSMOS 1975
OBJECT_ID      = 1988-093A
CENTER_NAME    = EARTH
REF_FRAME      = TEME
TIME_SYSTEM    = UTC
MEAN_ELEMENT_THEORY = SGP/SGP4

EPOCH          = 2026-04-05T05:49:31.478880
MEAN_MOTION    = 15.28462572
ECCENTRICITY   = .00133332
INCLINATION    = 82.5163
RA_OF_ASC_NODE = 91.0152
ARG_OF_PERICENTER = 80.2064
MEAN_ANOMALY   = 280.0681

EPHEMERIS_TYPE = 0
CLASSIFICATION_TYPE = U
NORAD_CAT_ID   = 19573
ELEMENT_SET_NO = 999
REV_AT_EPOCH   = 2346
BSTAR          = .28558676E-3
MEAN_MOTION_DOT = .7963E-4
MEAN_MOTION_DDOT = 0

CCSDS_OMM_VERS = 2.0
CREATION_DATE  = 
ORIGINATOR     = 

OBJECT_NAME    = SL-14 R/B
OBJECT_ID      = 1988-093B
CENTER_NAME    = EARTH
REF_FRAME      = TEME
TIME_SYSTEM    = UTC
MEAN_ELEMENT_THEORY = SGP/SGP4

EPOCH          = 2026-04-05T05:13:17.061312
MEAN_MOTION    = 14.85690225
ECCENTRICITY   = .00195254
INCLINATION    = 82.5346
RA_OF_ASC_NODE = 17.1467
ARG_OF_PERICENTER = 313.5979
MEAN_ANOMALY   = 208.6179

EPHEMERIS_TYPE = 0
CLASSIFICATION_TYPE = U
NORAD_CAT_ID   = 19574
ELEMENT_SET_NO = 999
REV_AT_EPOCH   = 495
BSTAR          = .8337933E-4
MEAN_MOTION_DOT = .749E-5
MEAN_MOTION_DDOT = 0

CCSDS_OMM_VERS = 2.0
CREATION_DATE  = 
ORIGINATOR     = 

OBJECT_NAME    = SL-16 R/B
OBJECT_ID      = 1988-102B
CENTER_NAME    = EARTH
REF_FRAME      = TEME
TIME_SYSTEM    = UTC
MEAN_ELEMENT_THEORY = SGP/SGP4

EPOCH          = 2026-04-05T04:20:44.683008
MEAN_MOTION    = 14.16155844
ECCENTRICITY   = .00154268
INCLINATION    = 70.9972
RA_OF_ASC_NODE = 95.7545
ARG_OF_PERICENTER = 322.9491
MEAN_ANOMALY   = 37.0566

EPHEMERIS_TYPE = 0
CLASSIFICATION_TYPE = U
NORAD_CAT_ID   = 19650
ELEMENT_SET_NO = 999
REV_AT_EPOCH   = 93064
BSTAR          = .16936665E-3
MEAN_MOTION_DOT = .288E-5
MEAN_MOTION_DDOT = 0

CCSDS_OMM_VERS = 2.0
CREATION_DATE  = 
ORIGINATOR     = 

OBJECT_NAME    = INTERCOSMOS 24
OBJECT_ID      = 1989-080A
CENTER_NAME    = EARTH
REF_FRAME      = TEME
TIME_SYSTEM    = UTC
MEAN_ELEMENT_THEORY = SGP/SGP4

EPOCH          = 2026-04-05T06:05:24.616032
MEAN_MOTION    = 12.59591393
ECCENTRICITY   = .11870222
INCLINATION    = 82.6016
RA_OF_ASC_NODE = 87.1005
ARG_OF_PERICENTER = 231.1120
MEAN_ANOMALY   = 117.8168

EPHEMERIS_TYPE = 0
CLASSIFICATION_TYPE = U
NORAD_CAT_ID   = 20261
ELEMENT_SET_NO = 999
REV_AT_EPOCH   = 67014
BSTAR          = .14865271E-3
MEAN_MOTION_DOT = .507E-5
MEAN_MOTION_DDOT = 0

CCSDS_OMM_VERS = 2.0
CREATION_DATE  = 
ORIGINATOR     = 

OBJECT_NAME    = SL-14 R/B
OBJECT_ID      = 1989-080C
CENTER_NAME    = EARTH
REF_FRAME      = TEME
TIME_SYSTEM    = UTC
MEAN_ELEMENT_THEORY = SGP/SGP4

EPOCH          = 2026-04-05T04:50:17.035584
MEAN_MOTION    = 12.50519289
ECCENTRICITY   = .12309175
INCLINATION    = 82.5945
RA_OF_ASC_NODE = 156.1742
ARG_OF_PERICENTER = 124.1814
MEAN_ANOMALY   = 248.2220

EPHEMERIS_TYPE = 0
CLASSIFICATION_TYPE = U
NORAD_CAT_ID   = 20262
ELEMENT_SET_NO = 999
REV_AT_EPOCH   = 66346
BSTAR          = .1315735E-3
MEAN_MOTION_DOT = .468E-5
MEAN_MOTION_DDOT = 0

CCSDS_OMM_VERS = 2.0
CREATION_DATE  = 
ORIGINATOR     = 

OBJECT_NAME    = DELTA 1 R/B
OBJECT_ID      = 1989-089B
CENTER_NAME    = EARTH
REF_FRAME      = TEME
TIME_SYSTEM    = UTC
MEAN_ELEMENT_THEORY = SGP/SGP4

EPOCH          = 2026-04-05T02:34:29.402400
MEAN_MOTION    = 14.50686434
ECCENTRICITY   = .00700925
INCLINATION    = 97.0683
RA_OF_ASC_NODE = 298.3398
ARG_OF_PERICENTER = 40.0772
MEAN_ANOMALY   = 320.5567

EPHEMERIS_TYPE = 0
CLASSIFICATION_TYPE = U
NORAD_CAT_ID   = 20323
ELEMENT_SET_NO = 999
REV_AT_EPOCH   = 89956
BSTAR          = .12042104E-3
MEAN_MOTION_DOT = .453E-5
MEAN_MOTION_DDOT = 0

CCSDS_OMM_VERS = 2.0
CREATION_DATE  = 
ORIGINATOR     = 

OBJECT_NAME    = ARIANE 40 R/B
OBJECT_ID      = 1990-005H
CENTER_NAME    = EARTH
REF_FRAME      = TEME
TIME_SYSTEM    = UTC
MEAN_ELEMENT_THEORY = SGP/SGP4

EPOCH          = 2026-04-05T03:36:43.375392
MEAN_MOTION    = 14.39889347
ECCENTRICITY   = .00112785
INCLINATION    = 98.3028
RA_OF_ASC_NODE = 155.0163
ARG_OF_PERICENTER = 122.4854
MEAN_ANOMALY   = 237.7426

EPHEMERIS_TYPE = 0
CLASSIFICATION_TYPE = U
NORAD_CAT_ID   = 20443
ELEMENT_SET_NO = 999
REV_AT_EPOCH   = 89661
BSTAR          = .13566658E-3
MEAN_MOTION_DOT = .384E-5
MEAN_MOTION_DDOT = 0

CCSDS_OMM_VERS = 2.0
CREATION_DATE  = 
ORIGINATOR     = 

OBJECT_NAME    = DELTA 2 R/B(1)
OBJECT_ID      = 1990-008B
CENTER_NAME    = EARTH
REF_FRAME      = TEME
TIME_SYSTEM    = UTC
MEAN_ELEMENT_THEORY = SGP/SGP4

EPOCH          = 2026-04-05T03:56:43.353888
MEAN_MOTION    = 15.59772920
ECCENTRICITY   = .00761901
INCLINATION    = 35.6042
RA_OF_ASC_NODE = 0.6456
ARG_OF_PERICENTER = 148.0524
MEAN_ANOMALY   = 212.4864

EPHEMERIS_TYPE = 0
CLASSIFICATION_TYPE = U
NORAD_CAT_ID   = 20453
ELEMENT_SET_NO = 999
REV_AT_EPOCH   = 93026
BSTAR          = .89120269E-3
MEAN_MOTION_DOT = .85921E-3
MEAN_MOTION_DDOT = 0

